[{"OBJECT_NAME":"STARLINK-30797","OBJECT_ID":"2023-166E","EPOCH":"2026-03-09T16:32:19.825440","MEAN_MOTION":15.30192386,"ECCENTRICITY":0.00011013,"INCLINATION":53.1598,"RA_OF_ASC_NODE":219.781,"ARG_OF_PERICENTER":92.5187,"MEAN_ANOMALY":267.594,"EPHEMERIS_TYPE":0,"CLASSIFICATION_TYPE":"U","NORAD_CAT_ID":58154,"ELEMENT_SET_NO":999,"REV_AT_EPOCH":13302,"BSTAR":1.8569429e-5,"MEAN_MOTION_DOT":1.91e-6,"MEAN_MOTION_DDOT":0},{"OBJECT_NAME":"STARLINK-31704","OBJECT_ID":"2024-076Y","EPOCH":"2026-03-09T22:00:01.999584","MEAN_MOTION":15.30892355,"ECCENTRICITY":0.00079744,"INCLINATION":42.9978,"RA_OF_ASC_NODE":323.2923,"ARG_OF_PERICENTER":240.5046,"MEAN_ANOMALY":200.4144,"EPHEMERIS_TYPE":0,"CLASSIFICATION_TYPE":"U","NORAD_CAT_ID":59586,"ELEMENT_SET_NO":999,"REV_AT_EPOCH":581,"BSTAR":0.0024766131,"MEAN_MOTION_DOT":0.00076042,"MEAN_MOTION_DDOT":0}]
